STARLINK-3733           
1 52137U 22029BB  23346.72064197  .00000263  00000+0  34618-4 0  9993
2 52137  53.2174 141.1281 0001215  82.4086 277.7044 15.08837128 97456
STARLINK-3723           
1 52138U 22029BC  23346.66175926  .00000683  00000+0  61023-4 0  9996
2 52138  53.2166 141.3908 0001283 101.0339 259.0798 15.08838810 97447
STARLINK-3730           
1 52139U 22029BD  23346.77492192  .00001084  00000+0  86173-4 0  9995
2 52139  53.2159 150.8792 0001359  83.0360 277.0786 15.08840690 97315
STARLINK-3682           
1 52140U 22029BE  23346.65072047  .00000703  00000+0  62235-4 0  9997
2 52140  53.2179 141.4428 0001451 104.6774 255.4379 15.08841636 97446
STARLINK-3810           
1 52261U 22041A   23346.84672370  .00000070  00000+0  22522-4 0  9993
2 52261  53.2170 180.5715 0001434 101.4326 258.6828 15.08836114 90894
STARLINK-3761           
1 52262U 22041B   23346.84575732  .00000596  00000+0  55511-4 0  9995
2 52262  53.2165 180.5143 0001338  78.8822 281.2321 15.08837913 90893
STARLINK-3786           
1 52263U 22041C   23346.78322502  .00000073  00000+0  22675-4 0  9999
2 52263  53.2161 180.8480 0001443  96.2761 263.8395 15.08824749 90889
STARLINK-3795           
1 52264U 22041D   23346.77584285  .00000020  00000+0  19381-4 0  9999
2 52264  53.2163 180.8800 0001528 108.2601 251.8557 15.08836044 90887
STARLINK-3740           
1 52265U 22041E   23346.83840157  .00000613  00000+0  56593-4 0  9994
2 52265  53.2164 180.5963 0001446  98.7397 261.3759 15.08839332 90894
STARLINK-3739           
1 52266U 22041F   23346.76849933  .00001710  00000+0  12551-3 0  9992
2 52266  53.2154 180.9052 0001230  84.0535 276.0597 15.08827068 90885
STARLINK-3748           
1 52267U 22041G   23346.83104016 -.00000083  00000+0  12886-4 0  9992
2 52267  53.2161 180.6287 0001416 101.9344 258.1807 15.08841837 90890
STARLINK-3746           
1 52268U 22041H   23346.81262431 -.00007267  00000+0 -43868-3 0  9992
2 52268  53.2148 180.6410 0001501  95.4221 264.6943 15.08864093 90892
STARLINK-3791           
1 52269U 22041J   23346.76112053  .00000221  00000+0  31975-4 0  9999
2 52269  53.2168 180.9392 0001488  95.8890 264.2272 15.08841451 90880
STARLINK-3804           
1 52270U 22041K   23346.82003010 -.00002079  00000+0 -11265-3 0  9994
2 52270  53.2150 180.7073 0001331  99.0716 261.0426 15.08820941 90895
STARLINK-3788           
1 52271U 22041L   23346.82367814  .00001465  00000+0  11010-3 0  9994
2 52271  53.2160 180.6598 0001368  96.3863 263.7285 15.08844392 90899
STARLINK-3781           
1 52272U 22041M   23346.81728143  .00000501  00000+0  49543-4 0  9993
2 52272  53.2160 180.7318 0001448  84.5305 275.5852 15.08843100 90897
STARLINK-3782           
1 52273U 22041N   23346.78880401  .00000999  00000+0  80838-4 0  9999
2 52273  53.2160 171.2100 0001405  84.4156 275.6996 15.08845827 91022
STARLINK-3790           
1 52274U 22041P   23346.80895833 -.00000599  00000+0 -19569-4 0  9999
2 52274  53.2152 180.7343 0001337  90.1256 269.9889 15.08840264 90898
STARLINK-3784           
1 52275U 22041Q   23346.81633433  .00000985  00000+0  79962-4 0  9997
2 52275  53.2152 180.6971 0001437  90.0239 270.0917 15.08838661 90899
STARLINK-3778           
1 52276U 22041R   23346.87152671  .00000291  00000+0  36353-4 0  9991
2 52276  53.2159 180.4552 0001456  81.5224 278.5933 15.08837680 90903
STARLINK-3787           
1 52277U 22041S   23346.72428845  .00345912  00000+0  32086-2 0  9994
2 52277  53.2093 142.3567 0008081 255.2040 104.8082 15.65826523 91433
STARLINK-3780           
1 52278U 22041T   23346.86784424  .00001229  00000+0  95309-4 0  9997
2 52278  53.2160 180.4677 0001447  94.6704 265.4453 15.08840083 92122
STARLINK-3686           
1 52279U 22041U   23347.00001157 -.00098139  00000+0 -19503-2 0  9998
2 52279  53.2206 141.3668 0000679 267.0773 217.9797 15.46676814  5924
STARLINK-3764           
1 52280U 22041V   23346.85680437  .00000419  00000+0  44399-4 0  9991
2 52280  53.2160 180.5148 0001360  93.8710 266.2438 15.08839242 90902
STARLINK-3779           
1 52281U 22041W   23346.87248412  .00001231  00000+0  95423-4 0  9994
2 52281  53.2157 180.4470 0001259  71.6226 288.4903 15.08831008 90904
STARLINK-3783           
1 52282U 22041X   23346.78412086  .00001177  00000+0  92038-4 0  9993
2 52282  53.2152 170.8479 0001312  90.4268 269.6874 15.08846910 91027
STARLINK-3789           
1 52283U 22041Y   23346.86416264  .00001160  00000+0  90953-4 0  9991
2 52283  53.2159 180.4838 0001300  99.4207 260.6932 15.08839646 92126
STARLINK-3561           
1 52284U 22041Z   23346.84299980  .00001020  00000+0  82149-4 0  9997
2 52284  53.2162 170.5817 0001251  86.1069 274.0066 15.08844636 91033
STARLINK-3775           
1 52285U 22041AA  23346.86048399  .00000961  00000+0  78452-4 0  9991
2 52285  53.2164 180.5011 0001347  95.4279 264.6867 15.08840173 90906
STARLINK-3802           
1 52286U 22041AB  23346.83564200 -.00000078  00000+0  13196-4 0  9997
2 52286  53.2146 170.6109 0001296  94.0464 266.0676 15.08845373 91035
STARLINK-3822           
1 52287U 22041AC  23346.85313009  .00005881  00000+0  38758-3 0  9995
2 52287  53.2159 180.5322 0001455  98.4267 261.6890 15.08808618 90908
STARLINK-3776           
1 52288U 22041AD  23346.83197755  .00001041  00000+0  83482-4 0  9991
2 52288  53.2163 170.6285 0001402 106.9158 253.1988 15.08845020 92250
STARLINK-3751           
1 52289U 22041AE  23346.78043954  .00001577  00000+0  11712-3 0  9997
2 52289  53.2165 170.8581 0001343  93.4774 266.6371 15.08845415 91029
STARLINK-3772           
1 52290U 22041AF  23346.75564036  .00000912  00000+0  75416-4 0  9999
2 52290  53.2157 170.9665 0001281 110.9475 249.1654 15.08836834 91025
STARLINK-3773           
1 52291U 22041AG  23346.83931990  .00001638  00000+0  12097-3 0  9997
2 52291  53.2166 170.5975 0001286 104.1457 255.9678 15.08844436 91035
STARLINK-3753           
1 52292U 22041AH  23346.81724388  .00000017  00000+0  19182-4 0  9990
2 52292  53.2162 170.6913 0001444  99.4955 260.6201 15.08836493 91039
STARLINK-3771           
1 52293U 22041AJ  23346.82924246  .00001531  00000+0  11424-3 0  9999
2 52293  53.2168 170.6476 0001205  91.6736 268.4394 15.08847335 91032
STARLINK-3777           
1 52294U 22041AK  23346.74732537 -.00000520  00000+0 -14601-4 0  9991
2 52294  53.2165 171.0064 0001559 107.2434 252.8729 15.08835036 91022
STARLINK-3765           
1 52295U 22041AL  23346.82460711  .00000497  00000+0  49334-4 0  9995
2 52295  53.2165 170.6589 0001342  84.6719 275.4426 15.08831794 91037
STARLINK-3766           
1 52296U 22041AM  23346.80251540  .00000630  00000+0  57669-4 0  9991
2 52296  53.2151 170.7588 0001397  92.2300 267.8852 15.08843486 91033
STARLINK-3758           
1 52297U 22041AN  23346.75469884  .00001967  00000+0  14162-3 0  9992
2 52297  53.2159 170.9731 0001496  95.9310 264.1853 15.08840808 91020
STARLINK-3760           
1 52298U 22041AP  23346.82822537 -.00001358  00000+0 -67226-4 0  9995
2 52298  53.2159 170.2567 0001348 102.3200 257.7943 15.08840519 91047
STARLINK-3759           
1 52299U 22041AQ  23346.80620193 -.00000525  00000+0 -14905-4 0  9999
2 52299  53.2162 170.7431 0001555 101.3574 258.7593 15.08836492 91036
STARLINK-3769           
1 52300U 22041AR  23346.79150068  .00002044  00000+0  14651-3 0  9992
2 52300  53.2153 170.8071 0001294  81.0693 279.0446 15.08835616 92251
STARLINK-3768           
1 52301U 22041AS  23346.74364490  .00003963  00000+0  26710-3 0  9994
2 52301  53.2159 171.0182 0001418  65.2036 294.9103 15.08819455 91020
STARLINK-3564           
1 52302U 22041AT  23346.78136145 -.00000106  00000+0  11403-4 0  9994
2 52302  53.2158 160.8517 0001387 104.8605 255.2540 15.08836265 91163
STARLINK-3742           
1 52303U 22041AU  23346.79516076  .00000336  00000+0  39196-4 0  9994
2 52303  53.2157 170.7892 0001402  89.7380 270.3773 15.08842528 92254
STARLINK-3744           
1 52304U 22041AV  23346.77768280  .00000215  00000+0  31573-4 0  9996
2 52304  53.2163 160.8692 0001378  95.4755 264.6395 15.08841045 91160
STARLINK-3724           
1 52305U 22041AW  23346.73261229 -.00000117  00000+0  10755-4 0  9995
2 52305  53.2163 171.1783 0001512  99.5830 260.5333 15.08840410 91023
STARLINK-3747           
1 52306U 22041AX  23346.77401164  .00002029  00000+0  14552-3 0  9995
2 52306  53.2167 160.8904 0001359  97.0496 263.0651 15.08836935 92386
STARLINK-3755           
1 52307U 22041AY  23346.78780070  .00000420  00000+0  44474-4 0  9993
2 52307  53.2158 170.8265 0001483  83.3797 276.7364 15.08841608 91034
STARLINK-3745           
1 52308U 22041AZ  23346.77208793  .00013254  00000+0  71112-3 0  9997
2 52308  53.2129 158.8619 0005725 163.2758 196.8426 15.15257316 92419
STARLINK-3756           
1 52309U 22041BA  23346.77031922  .00000200  00000+0  30689-4 0  9998
2 52309  53.2160 160.9052 0001548  96.8616 263.2553 15.08841365 92384
STARLINK-3688           
1 52310U 22041BB  23346.76665000  .00000167  00000+0  28566-4 0  9992
2 52310  53.2163 160.9876 0001188  84.4746 275.6382 15.08841054 92382
STARLINK-3750           
1 52311U 22041BC  23346.76296044  .00003068  00000+0  21075-3 0  9991
2 52311  53.2151 160.9379 0001301  90.6705 269.4436 15.08842612 92381
STARLINK-3752           
1 52312U 22041BD  23346.78871661 -.00000157  00000+0  82253-5 0  9992
2 52312  53.2162 160.7711 0001345  98.6243 261.4901 15.08837888 92394
STARLINK-3749           
1 52313U 22041BE  23346.72617207  .00001330  00000+0  10163-3 0  9993
2 52313  53.2161 161.1009 0001191  87.0659 273.0470 15.08849129 92381
STARLINK-3889           
1 52331U 22045A   23347.11256857  .00000684  00000+0  61068-4 0  9993
2 52331  53.2184 279.3687 0002016 105.3167 254.8048 15.08838501 92217
STARLINK-3831           
1 52332U 22045B   23346.13096494  .00000502  00000+0  49634-4 0  9998
2 52332  53.2177 283.7839 0001687 101.4325 258.6857 15.08838693 92069
